IRIDIUM 155             
1 43573U 18061E   22055.55193027  .00000151  00000+0  46752-4 0  9998
2 43573  86.4016 354.3315 0002536  88.1282 272.0204 14.34217575187808
IRIDIUM 154             
1 43574U 18061F   22055.53290447  .00000147  00000+0  45536-4 0  9995
2 43574  86.4020 354.3977 0001848  88.3191 271.8217 14.34216599187855
IRIDIUM 163             
1 43575U 18061G   22055.37432901  .00000142  00000+0  43764-4 0  9997
2 43575  86.4017 354.4273 0002034  73.8396 286.3024 14.34216086187809
IRIDIUM 156             
1 43576U 18061H   22055.55827724  .00000150  00000+0  46677-4 0  9994
2 43576  86.4017 354.3558 0002358  78.9610 281.1851 14.34216485187825
IRIDIUM 164             
1 43577U 18061J   22055.53923234  .00000183  00000+0  58200-4 0  9997
2 43577  86.4019 354.3801 0001880  83.1810 276.9600 14.34214995187860
IRIDIUM 159             
1 43578U 18061K   22055.29820624  .00000145  00000+0  44832-4 0  9994
2 43578  86.4017 354.4506 0001912  86.1487 273.9927 14.34222632187799
IRIDIUM 180             
1 43922U 19002A   22055.57679048  .00000128  00000+0  38711-4 0  9996
2 43922  86.3945 291.2016 0001261  82.2129 277.9210 14.34215529163444
IRIDIUM 176             
1 43923U 19002B   22055.57057664  .00000377  00000+0  55953-4 0  9994
2 43923  86.6080 291.2393 0002342  92.2108 267.9377 14.72256319167727
IRIDIUM 168             
1 43924U 19002C   22055.57044487  .00000131  00000+0  39543-4 0  9999
2 43924  86.3948 291.2371 0001764  90.0912 270.0486 14.34219286163429
IRIDIUM 173             
1 43925U 19002D   22055.55776663  .00000123  00000+0  36695-4 0  9992
2 43925  86.3945 291.1955 0001807  86.9777 273.1626 14.34217366163400
IRIDIUM 169             
1 43926U 19002E   22055.48336044  .00000164  00000+0  47076-4 0  9990
2 43926  86.4252 322.8378 0006512 112.4402 247.7487 14.38614978163970
IRIDIUM 172             
1 43927U 19002F   22055.41188765  .00000131  00000+0  39718-4 0  9997
2 43927  86.3945 291.2596 0001711  86.7064 273.4327 14.34216685163397
IRIDIUM 175             
1 43928U 19002G   22055.56435954  .00000374  00000+0  55420-4 0  9996
2 43928  86.6082 291.0689 0001981  85.9885 274.1559 14.72264778167718
IRIDIUM 171             
1 43929U 19002H   22055.39286410  .00000125  00000+0  37716-4 0  9991
2 43929  86.3955 291.3992 0001774  90.4639 269.6760 14.34218114163386
IRIDIUM 170             
1 43930U 19002J   22055.57677372  .00000373  00000+0  55249-4 0  9990
2 43930  86.6081 291.2424 0002193  92.5463 267.6005 14.72254925167739
IRIDIUM 167             
1 43931U 19002K   22055.59581528  .00000130  00000+0  39304-4 0  9995
2 43931  86.3946 291.1912 0001458  87.7577 272.3786 14.34220879163412
